satname,norad_id,inclination_deg,eccentricity,mean_motion_rev_per_day,perigee_km,apogee_km,l1,l2
STARLINK-1548,46054,53.1589,0.0001331,15.31702581,469.82071690573775,471.6438859137734,1 46054U 20055AD  26135.29113882  .00004427  00000+0  15432-3 0  9996,2 46054  53.1589 164.3716 0001331  87.4674 272.6479 15.31702581319276
STARLINK-1554,46055,53.158,0.00012,15.3170871,469.89216916816076,471.5358934156702,1 46055U 20055AE  26135.27247528  .00000614  00000+0  31552-4 0  9996,2 46055  53.1580 164.4001 0001200  92.9037 267.2101 15.31708710319277
STARLINK-1564,46058,53.1587,0.0001223,15.30192867,474.398199791498,476.07453491715296,1 46058U 20055AH  26135.30403198  .00001102  00000+0  49337-4 0  9993,2 46058  53.1587 164.9516 0001223  93.6420 266.4720 15.30192867319268
STARLINK-1570,46059,53.16,0.0001174,15.31719199,469.87871316311157,471.48681604384,1 46059U 20055AJ  26135.30040156  .00002896  00000+0  10500-3 0  9995,2 46059  53.1600 164.1551 0001174  91.2909 268.8227 15.31719199319236
STARLINK-1572,46060,53.1594,0.0001221,15.30189588,474.40935986724344,476.08295603441456,1 46060U 20055AK  26135.28503058  .00000203  00000+0  18977-4 0  9996,2 46060  53.1594 164.7861 0001221  70.7545 289.3588 15.30189588319231
STARLINK-1573,46061,53.1591,0.0001205,15.31698121,469.9203060797281,471.57088678546825,1 46061U 20055AL  26135.28643185  .00000279  00000+0  20743-4 0  9990,2 46061  53.1591 164.1867 0001205  86.4658 273.6481 15.31698121319271
STARLINK-1577,46063,53.1601,0.00013,15.31698819,469.85316126041016,471.63387019449965,1 46063U 20055AN  26135.31440067  .00000396  00000+0  24513-4 0  9999,2 46063  53.1601 164.0514 0001300  68.8099 291.3041 15.31698819319275
STARLINK-1583,46064,53.1592,0.0001685,15.30190469,474.08873279619183,476.3983220339305,1 46064U 20055AP  26135.31448722  .00000642  00000+0  33810-4 0  9990,2 46064  53.1592 164.3979 0001685  83.5305 276.5888 15.30190469319263
STARLINK-1536,46070,53.1611,0.0001288,15.31702662,469.84992561873696,471.61419428858153,1 46070U 20055AV  26135.26448457  .00000822  00000+0  38264-4 0  9994,2 46070  53.1611 152.1713 0001288  80.0986 280.0160 15.31702662319436
STARLINK-1542,46073,53.1581,0.000123,15.31708123,469.87337220027075,471.5581899844201,1 46073U 20055AY  26135.25002315 -.00023139  00000+0 -73597-3 0  9990,2 46073  53.1581 155.2037 0001230  80.4600  65.3851 15.31708123  5398
STARLINK-1549,46074,53.048,0.0003623,15.27600944,480.5005978839972,485.4721678872356,1 46074U 20055AZ  26135.26240620  .00012958  00000+0  48571-3 0  9994,2 46074  53.0480 152.0301 0003623  33.0476 327.0748 15.27600944319419
STARLINK-1551,46075,53.1606,0.0001485,15.30186118,474.2387899448822,476.2742478199916,1 46075U 20055BA  26135.29496825  .00000282  00000+0  21654-4 0  9999,2 46075  53.1606 151.6847 0001485 107.3248 252.7915 15.30186118319435
STARLINK-1552,46076,53.1596,0.0001291,15.31704989,469.84093521650175,471.60931141674246,1 46076U 20055BB  26135.30670843  .00000437  00000+0  25860-4 0  9991,2 46076  53.1596 151.4920 0001291  78.3770 281.7376 15.31704989319421
STARLINK-1559,46077,53.0218,0.0003406,15.36011807,455.5884398827984,460.2451597312265,1 46077U 20055BC  26135.25609715  .00027819  00000+0  78974-3 0  9992,2 46077  53.0218 122.4697 0003406  24.3003 335.8158 15.36011807319795
STARLINK-1566,46079,53.1603,0.0001246,15.31698392,469.8914179233079,471.59815926502597,1 46079U 20055BE  26135.31134702  .00000045  00000+0  13209-4 0  9993,2 46079  53.1603 151.3188 0001246  86.5322 273.5822 15.31698392319449
STARLINK-1568,46080,53.0585,0.0003541,15.52039856,408.3671236846121,413.17502838406017,1 46080U 20055BF  26135.26093666  .00036341  00000+0  59763-3 0  9994,2 46080  53.0585  73.9529 0003541  32.7156 327.4071 15.52039856320517
STARLINK-1578,46082,53.1598,0.0001544,15.31698005,469.68847469701177,471.8034097495711,1 46082U 20055BH  26135.31573638 -.00000359  00000+0  20165-6 0  9992,2 46082  53.1598 151.8219 0001544  64.4421 295.6740 15.31698005319436
STARLINK-1579,46083,53.1614,0.0001351,15.31695415,469.8283777775987,471.678948034717,1 46083U 20055BJ  26135.30203594 -.00000476  00000+0 -35700-5 0  9994,2 46083  53.1614 151.4191 0001351  90.2561 269.8595 15.31695415319432
STARLINK-1622,46128,53.0189,0.0004816,15.7725033,335.0006158829101,341.46982560593096,1 46128U 20057M   26134.75075979  .00091400  00000+0  54337-3 0  9998,2 46128  53.0189 257.0926 0004816 347.7442  12.3459 15.77250330317749
STARLINK-1623,46129,53.0448,0.0001575,15.69661366,358.8046904442217,360.92716136588206,1 46129U 20057N   26133.44079978  .00066901  00000+0  55366-3 0  9998,2 46129  53.0448 300.2010 0001575 299.8088  60.2771 15.69661366317032
STARLINK-1624,46130,53.0299,0.001147,16.00697673,264.8572611958025,280.11378926868565,1 46130U 20057P   26135.29290172  .00463715  10481-3  84730-3 0  9995,2 46130  53.0299 257.6322 0011470 311.3488  48.6554 16.00697673319035
STARLINK-1596,46141,53.0382,0.0003901,15.55474271,398.12987910374704,403.4187857252955,1 46141U 20057AA  26134.76653011  .00063687  00000+0  91635-3 0  9991,2 46141  53.0382 273.5614 0003901 308.3091  51.7568 15.55474271317525
STARLINK-1597,46142,53.0445,0.0001963,15.69382187,359.34216219926566,361.98781586015866,1 46142U 20057AB  26133.73117821  .00069972  00000+0  58533-3 0  9995,2 46142  53.0445 338.4586 0001963  68.7810 291.3416 15.69382187316518
STARLINK-1606,46144,53.0382,0.0004205,15.80487282,326.24130060073094,331.88205468863,1 46144U 20057AD  26134.80907740  .00127806  00000+0  65262-3 0  9991,2 46144  53.0382 288.5089 0004205 265.4751  94.5789 15.80487282305569
STARLINK-1608,46146,53.1615,0.0001369,15.33771858,463.6340810396523,465.5076144483646,1 46146U 20057AF  26134.36673054  .00033941  00000+0  10314-2 0  9995,2 46146  53.1615   3.7100 0001369 197.8979 162.1975 15.33771858316249
STARLINK-1667,46155,53.0159,0.0006496,15.80279602,325.29192584768316,334.00668181362016,1 46155U 20057AQ  26135.25002315  .00084550  00000+0  43892-3 0  9990,2 46155  53.0159 254.5287 0006496 343.7144 357.3083 15.80279602  5936
STARLINK-1545,46156,53.0415,0.0003966,15.75859407,339.5214700416427,344.85203084049226,1 46156U 20057AR  26134.85962676  .00096625  00000+0  61028-3 0  9998,2 46156  53.0415 291.7640 0003966 236.3883 123.6758 15.75859407318520
STARLINK-1595,46159,53.0444,9.47e-05,15.6788883,364.3047159744556,365.58185538056296,1 46159U 20057AU  26134.94404606  .00052885  00000+0  47253-3 0  9999,2 46159  53.0444 334.8872 0000947  76.8089 283.3032 15.67888830317938
